BEIDOU 3 (C01)          
1 36287U 10001A   21325.60466101 -.00000264  00000+0  00000+0 0  9996
2 36287   1.7401  43.6499 0001633  86.5890 288.6781  1.00274697 43435
BEIDOU 5 (C06)          
1 36828U 10036A   21325.30167545 -.00000039  00000+0  00000+0 0  9992
2 36828  54.1792 178.1482 0023433 175.7558 280.9632  1.00258148 41498
BEIDOU 6 (C04)          
1 37210U 10057A   21325.62311550 -.00000094  00000+0  00000+0 0  9994
2 37210   0.8047  44.1456 0007818 156.7388 244.3926  1.00273079 40553
BEIDOU 7 (C07)          
1 37256U 10068A   21325.61802693 -.00000201  00000+0  00000+0 0  9998
2 37256  50.5860 292.1295 0016869 191.5354 267.1199  1.00258742 40061
BEIDOU 8 (C08)          
1 37384U 11013A   21324.88074873 -.00000192  00000+0  00000+0 0  9999
2 37384  59.9921  56.3394 0019529 185.9444 240.3369  1.00265147 38939
BEIDOU 9 (C09)          
1 37763U 11038A   21325.09754083 -.00000002  00000+0  00000+0 0  9999
2 37763  54.4662 180.6134 0086174 225.8641 144.5244  1.00277958 37915
BEIDOU 10 (C10)         
1 37948U 11073A   21325.30325707 -.00000149  00000+0  00000+0 0  9996
2 37948  50.6986 291.7597 0078053 218.7331 113.1610  1.00257687 36665
BEIDOU 11 (C05)         
1 38091U 12008A   21324.96910428  .00000071  00000+0  00000+0 0  9999
2 38091   1.8963  71.0565 0003654 273.3954 123.4729  1.00277036 35748
BEIDOU 12 (C11)         
1 38250U 12018A   21324.45771274 -.00000090  00000+0  00000+0 0  9997
2 38250  56.7388   0.4648 0024579 248.3538 239.7602  1.86234226 65193
BEIDOU 13 (C12)         
1 38251U 12018B   21324.68667333 -.00000090  00000+0  00000+0 0  9993
2 38251  56.6583 359.7946 0015537 249.5902  76.3434  1.86234032 65196
BEIDOU 15 (C14)         
1 38775U 12050B   21325.36534117  .00000030  00000+0  00000+0 0  9992
2 38775  55.2852 118.6940 0011491 328.6908 289.3507  1.86231236 62587
BEIDOU 16 (C02)         
1 38953U 12059A   21325.61711992 -.00000159  00000+0  00000+0 0  9998
2 38953   1.4764  84.2877 0009939 277.5001   5.2676  1.00273539 33316
BEIDOU 17 (C31)         
1 40549U 15019A   21325.46115623 -.00000169  00000+0  00000+0 0  9994
2 40549  52.2349 315.1705 0037470 191.1232 175.5785  1.00287502 24358
BEIDOU 18 (C57)         
1 40748U 15037A   21325.47698583 -.00000089  00000+0  00000+0 0  9998
2 40748  55.9168 358.7615 0001998 323.3513  82.1896  1.86233312 43045
BEIDOU 19 (C58)         
1 40749U 15037B   21325.15994031 -.00000090  00000+0  00000+0 0  9993
2 40749  55.9204 358.7615 0005203 291.2169  37.1424  1.86231984 43028
BEIDOU 20 (C18)         
1 40938U 15053A   21324.97311891 -.00000136  00000+0  00000+0 0  9998
2 40938  51.8276 278.2694 0044119 196.0633  29.7018  1.00293213 22619
BEIDOU IGSO-6 (C13)     
1 41434U 16021A   21325.18104075 -.00000169  00000+0  00000+0 0  9990
2 41434  57.7963  55.0050 0044673 212.7806 313.4513  1.00282269 20743
BEIDOU-2 G7 (C03)       
1 41586U 16037A   21325.48181112 -.00000337  00000+0  00000+0 0  9992
2 41586   1.5197  65.2999 0007061 359.6901 279.7228  1.00268870 20052
BEIDOU-3 M1 (C19)       
1 43001U 17069A   21325.16167905  .00000029  00000+0  00000+0 0  9998
2 43001  55.4385 118.6737 0007056 289.5667 348.0175  1.86231653 27512
BEIDOU-3 M2 (C20)       
1 43002U 17069B   21325.21299273  .00000029  00000+0  00000+0 0  9999
2 43002  55.4393 118.7073 0005616 319.2152  36.0209  1.86231360 27502
BEIDOU-3 M3 (C27)       
1 43107U 18003A   21325.43127154 -.00000090  00000+0  00000+0 0  9995
2 43107  55.3628 359.7720 0003182  51.3501 256.1793  1.86232400 26274
BEIDOU-3 M4 (C28)       
1 43108U 18003B   21325.36198199 -.00000091  00000+0  00000+0 0  9996
2 43108  55.3563 359.7644 0004161 242.9312  63.2003  1.86230811 26279
BEIDOU-3 M5 (C21)       
1 43207U 18018A   21324.27837922  .00000026  00000+0  00000+0 0  9992
2 43207  55.3978 118.8240 0003872   2.2851 357.6983  1.86231487 25645
BEIDOU-3 M6 (C22)       
1 43208U 18018B   21324.34510349  .00000026  00000+0  00000+0 0  9992
2 43208  55.3968 118.8272 0005205 306.0192  53.9138  1.86231586 25643
BEIDOU-3 M7 (C29)       
1 43245U 18029A   21325.11021663 -.00000090  00000+0  00000+0 0  9999
2 43245  55.2866 357.5655 0001227 239.9314 122.6458  1.86232540 24815
BEIDOU-3 M8 (C30)       
1 43246U 18029B   21324.95966747 -.00000091  00000+0  10000-3 0  9998
2 43246  55.2844 357.6006 0003461 334.7265 333.2693  1.86232859 24795
BEIDOU IGSO-7 (C16)     
1 43539U 18057A   21325.26312508 -.00000050  00000+0  00000+0 0  9999
2 43539  55.0607 177.5536 0040322 221.6536 229.5781  1.00273914 12429
BEIDOU-3 M9 (C23)       
1 43581U 18062A   21325.10552712  .00000012  00000+0  00000+0 0  9995
2 43581  54.3446 239.2243 0004772 290.1471 326.0624  1.86231840 22547
BEIDOU-3 M10 (C24)      
1 43582U 18062B   21325.27313303  .00000012  00000+0  00000+0 0  9995
2 43582  54.3437 239.2080 0006097 351.5411 108.5864  1.86232347 22558
BEIDOU-3 M11 (C25)      
1 43602U 18067A   21325.35696248  .00000014  00000+0  00000+0 0  9996
2 43602  54.4226 237.8013 0007537   0.5948 197.5814  1.86231493 22042
BEIDOU-3 M12 (C26)      
1 43603U 18067B   21325.03581074  .00000013  00000+0  00000+0 0  9991
2 43603  54.4194 237.7794 0004821 348.0912 265.1899  1.86231407 22057
BEIDOU-3 M13 (C32)      
1 43622U 18072A   21325.09679769  .00000028  00000+0  00000+0 0  9999
2 43622  55.3639 118.3594 0003909 281.3858  42.6989  1.86231601 21567
BEIDOU-3 M14 (C33)      
1 43623U 18072B   21325.36392557  .00000029  00000+0  00000+0 0  9998
2 43623  55.3661 118.3420 0002330 333.0218 260.3918  1.86231565 21574
BEIDOU-3 M15 (C34)      
1 43647U 18078A   21324.07745236 -.00000094  00000+0  10000-3 0  9991
2 43647  55.1817 357.7773 0005613 347.9994 358.1525  1.86232729 21059
BEIDOU-3 M16 (C35)      
1 43648U 18078B   21325.23097823 -.00000090  00000+0  00000+0 0  9994
2 43648  55.1775 357.7454 0003407 354.6245 313.0867  1.86232199 21096
BEIDOU-3 G1 (C59)       
1 43683U 18085A   21325.56633486 -.00000260  00000+0  00000+0 0  9997
2 43683   0.8701 204.1464 0005146  41.6095 158.9550  1.00273850 11320
BEIDOU-3 M17 (C36)      
1 43706U 18093A   21324.92480572  .00000011  00000+0  00000+0 0  9990
2 43706  54.4245 239.1015 0009495 281.3509  78.5911  1.86232031 20450
BEIDOU-3 M18 (C37)      
1 43707U 18093B   21325.17435153  .00000012  00000+0  00000+0 0  9995
2 43707  54.4260 239.0831 0009135 303.4212 314.8440  1.86232172 20449
BEIDOU-3 IGSO-1 (C38)   
1 44204U 19023A   21325.37133110 -.00000226  00000+0  00000+0 0  9990
2 44204  56.2515  55.2191 0023295 188.6842  69.5234  1.00273787  9622
BEIDOU-2 G8             
1 44231U 19027A   21325.49017249 -.00000230  00000+0  00000+0 0  9996
2 44231   0.4001  55.3452 0007169 153.7329 172.6195  1.00275316  9340
BEIDOU-3 IGSO-2 (C39)   
1 44337U 19035A   21325.48346828 -.00000053  00000+0  00000+0 0  9992
2 44337  55.0982 173.5860 0020482 178.0964   2.1856  1.00264283  8964
BEIDOU-3 M23 (C45)      
1 44542U 19061A   21325.23960816  .00000013  00000+0  10000-3 0  9991
2 44542  54.6499 239.1904 0009233 335.9432 278.6275  1.86231684 14700
BEIDOU-3 M24 (C46)      
1 44543U 19061B   21325.37193500  .00000013  00000+0  10000-3 0  9995
2 44543  54.6485 239.1564 0006499 327.8778 286.4561  1.86232005 14705
BEIDOU-3 IGSO-3         
1 44709U 19073A   21325.32480017 -.00000187  00000+0  00000+0 0  9997
2 44709  57.5967 298.5382 0019418 187.2695 171.5874  1.00269877  7711
BEIDOU-3 M21            
1 44793U 19078A   21325.16198257 -.00000091  00000+0  10000-3 0  9998
2 44793  55.0303 357.7864 0005419 355.9700 311.5341  1.86232230 13563
BEIDOU-3 M22            
1 44794U 19078B   21325.37931966 -.00000090  00000+0  00000+0 0  9998
2 44794  55.0044 357.7756 0003572 343.5459  20.9420  1.86232736 13579
BEIDOU-3 M19            
1 44864U 19090A   21325.43262666  .00000030  00000+0  00000+0 0  9994
2 44864  55.2989 118.5699 0014330 263.5238 331.2858  1.86231776 13156
BEIDOU-3 M20            
1 44865U 19090B   21325.06799448  .00000028  00000+0  00000+0 0  9994
2 44865  55.3007 118.6139 0012487 280.1487 160.0896  1.86231748 13127
BEIDOU-3 G2             
1 45344U 20017A   21325.54748649 -.00000126  00000+0  00000+0 0  9998
2 45344   2.2473 342.5744 0001820 201.5338 153.7968  1.00273714  6529
BEIDOU-3 G3             
1 45807U 20040A   21325.55423965 -.00000337  00000+0  00000+0 0  9994
2 45807   1.9216 299.5579 0010261 342.4790  88.8264  1.00271275  5354
